GLOBALSTAR M001 [-]     
1 25162U 98008A   23358.50666587 -.00000108  00000+0 -87140-4 0  9999
2 25162  52.0033 106.8650 0002143 165.8966 276.1876 12.38175440176734
GLOBALSTAR M004 [-]     
1 25163U 98008B   23358.96260395 -.00000021  00000+0  45675-3 0  9996
2 25163  51.9990 262.1881 0002886 153.7277 288.2531 12.63346058193400
GLOBALSTAR M002 [-]     
1 25164U 98008C   23358.72230287 -.00000062  00000+0  28724-3 0  9999
2 25164  51.9992 155.3123 0001163 169.9876 190.0967 11.61498043121263
GLOBALSTAR M003 [-]     
1 25165U 98008D   23358.87700939  .00000058  00000+0  15737-2 0  9995
2 25165  51.9781 225.0406 0007139 289.9440 155.2095 12.11962979167702
GLOBALSTAR M014 [-]     
1 25306U 98023A   23358.55846928 -.00000071  00000+0  11513-3 0  9998
2 25306  51.9846  90.3130 0001528 107.9770 350.3324 11.65463433128124
GLOBALSTAR M006 [-]     
1 25307U 98023B   23358.69256138 -.00000088  00000+0 -25412-3 0  9994
2 25307  51.9927 122.2460 0003673 199.2290 268.6175 11.58157902154206
GLOBALSTAR M015 [-]     
1 25308U 98023C   23358.83926035 -.00000041  00000+0  75148-3 0  9990
2 25308  51.9784 195.5938 0012099 186.6487 270.7106 11.48857270131972
GLOBALSTAR M008 [-]     
1 25309U 98023D   23358.35441479 -.00000085  00000+0  84105-4 0  9994
2 25309  51.9990 326.0168 0002724 108.0128  57.2490 12.36033667170962
